ISS OBJECT XW           
1 66910U 98067XW  26047.83431345  .00110170  00000+0  11638-2 0  9992
2 66910  51.6264 171.3860 0002625 344.5571  15.5343 15.63344372 11919
ISS OBJECT XX           
1 66911U 98067XX  26047.58188469  .00171451  00000+0  15661-2 0  9990
2 66911  51.6245 171.9469 0004501 334.7332  25.3443 15.66761182 11871
ISS OBJECT XY           
1 66912U 98067XY  26047.59275737  .00078325  00000+0  94754-3 0  9994
2 66912  51.6285 173.5323 0000861 347.6773  12.4199 15.59991807 11854
ISS OBJECT XZ           
1 67683U 98067XZ  26047.65741968  .00039055  00000+0  68494-3 0  9990
2 67683  51.6311 176.2115 0010454 117.3582 242.8472 15.50110674  1520
GXIBA-1                 
1 67684U 98067YA  26047.65278759  .00074552  00000+0  12496-2 0  9995
2 67684  51.6308 176.1816 0012102 110.9325 249.2961 15.51081436  1528
CORAL                   
1 67685U 98067YB  26047.65651785  .00044575  00000+0  77477-3 0  9993
2 67685  51.6312 176.2061 0012396 113.0551 247.1746 15.50278727  1525
ISS OBJECT YC           
1 67686U 98067YC  26047.59123449  .00052403  00000+0  90420-3 0  9990
2 67686  51.6314 176.5206 0007796  86.2899 273.8981 15.50464751  1516
LEOPARD                 
1 67687U 98067YD  26047.65689110  .00043233  00000+0  75501-3 0  9994
2 67687  51.6316 176.2085 0007836  89.2259 270.9628 15.50209154  1441
ISS OBJECT YE           
1 67688U 98067YE  26047.65599918  .00048248  00000+0  83591-3 0  9990
2 67688  51.6315 176.2033 0007765  86.9328 273.2550 15.50385572  1445
CREW DRAGON 12          
1 67796U 26031A   26047.53756625  .00009593  00000+0  18404-3 0  9990
2 67796  51.6319 176.9116 0011020 104.8338 255.3872 15.48645386   477
